TDRS 3                  
1 19548U 88091B   26057.84610155 -.00000306  00000+0  00000+0 0  9991
2 19548  12.6852 341.7287 0044225 351.9002  78.3575  1.00261626124288
HST                     
1 20580U 90037B   26062.15651664  .00008766  00000+0  29119-3 0  9995
2 20580  28.4701  84.5634 0001675  60.3567 299.7195 15.29358901772310
TDRS 5                  
1 21639U 91054B   26061.54766797  .00000074  00000+0  00000+0 0  9995
2 21639  14.0843 354.5670 0011089 277.1432 278.2866  1.00265486126648
TDRS 6                  
1 22314U 93003B   26062.00996572 -.00000305  00000+0  00000+0 0  9998
2 22314  14.1806 357.8450 0005594 201.2460 279.2715  1.00279261121346
TDRS 7                  
1 23613U 95035B   26061.61691294 -.00000249  00000+0  00000+0 0  9994
2 23613  13.4211 348.9207 0008125  47.1447  75.4029  1.00276971112188
ISS (ZARYA)             
1 25544U 98067A   26061.93054995  .00009325  00000+0  18075-3 0  9991
2 25544  51.6319 105.7724 0008215 150.8374 209.3074 15.48408287555284
TERRA                   
1 25994U 99068A   26062.13367142  .00000513  00000+0  11359-3 0  9994
2 25994  97.9607 115.8185 0002257 167.8691 217.2698 14.61006268394120
TDRS 8                  
1 26388U 00034A   26061.89022469 -.00000206  00000+0  00000+0 0  9996
2 26388  12.5164  32.2081 0006157 307.0903 226.5804  1.00276790 94119
TIMED                   
1 26998U 01055B   26062.15496086  .00001548  00000+0  14517-3 0  9998
2 26998  74.0660  88.4733 0002949 282.8989  77.1865 14.94997468314971
AQUA                    
1 27424U 02022A   26062.18158764  .00001234  00000+0  25624-3 0  9992
2 27424  98.4163  29.4285 0000683  58.4731 357.1810 14.61957361267785
SORCE                   
1 27651U 03004A   26061.65624908  .00004531  00000+0  34049-3 0  9998
2 27651  39.9904 149.1890 0016842   2.4266 357.6607 15.03033305255863
AURA                    
1 28376U 04026A   26062.12291115  .00001233  00000+0  26047-3 0  9996
2 28376  98.3300  17.7838 0001025  78.1843 281.9472 14.61129673150722
SWIFT                   
1 28485U 04047A   26061.89036178  .00045443  00000+0  55519-3 0  9996
2 28485  20.5531 278.9198 0002958 303.2489  56.7671 15.58608096170202
THEMIS A                
1 30580U 07004A   26061.85464836 -.00000155  00000+0 -41647-2 0  9992
2 30580   6.7104 120.5035 8406376 176.9206 199.0330  0.87846902 40347
THEMIS D                
1 30797U 07004D   26061.73947464 -.00000220  00000+0  00000+0 0  9999
2 30797   6.5819  84.8181 8359377 215.4145 150.0134  0.87836024 40142
THEMIS E                
1 30798U 07004E   26062.14434020 -.00000222  00000+0  00000+0 0  9997
2 30798   4.1049  99.9857 8363088 201.2360 292.4037  0.87837726 64986
FGRST (GLAST)           
1 33053U 08029A   26061.87041750  .00004628  00000+0  17585-3 0  9998
2 33053  25.5811 222.3471 0008569 148.5067 211.5985 15.23265943979600
